ONEWEB-0461             
1 51649U 22012AD  25206.70355578  .00000082  00000+0  17914-3 0  9991
2 51649  87.9034  70.8282 0001692  78.7867 281.3455 13.17649557170897
ONEWEB-0463             
1 51650U 22012AE  25206.38124979 -.00000025  00000+0 -96888-4 0  9993
2 51650  87.9033  70.9572 0001801  84.1573 275.9763 13.17650155170637
ONEWEB-0464             
1 51651U 22012AF  25206.75732280  .00000211  00000+0  56854-3 0  9998
2 51651  87.8814 101.3952 0002145  73.7567 286.3796 13.10376495166579
ONEWEB-0468             
1 51652U 22012AG  25206.76395848  .00000440  00000+0  12229-2 0  9996
2 51652  87.8815 101.3852 0001876  77.6784 282.4553 13.10376709166558
ONEWEB-0473             
1 51653U 22012AH  25206.74901601 -.00000263  00000+0 -78915-3 0  9995
2 51653  87.8814 101.3917 0001916  80.1152 280.0191 13.10376410166554
ONEWEB-0474             
1 51654U 22012AJ  25206.74071536 -.00000645  00000+0 -18829-2 0  9992
2 51654  87.8812 101.3537 0002079  79.0342 281.1019 13.10374085166546
ONEWEB-0475             
1 51655U 22012AK  25206.16526152  .00000103  00000+0  23224-3 0  9991
2 51655  87.9040  70.9804 0002478  93.0652 267.0763 13.17649228170626
ONEWEB-0490             
1 54113U 22138A   25206.51582494 -.00000071  00000+0 -21071-3 0  9996
2 54113  87.9226   9.8864 0001992  88.6705 271.4655 13.19726891133745
